{"type":"FeatureCollection","features":[{"type":"Feature","properties":{"kind":"plateau","name":"Plateau #11A","depth_min":7.8,"depth_max":35.2,"area_m2":70604},"geometry":{"type":"Polygon","coordinates":[[[7.965714111790073,46.73667422887558],[7.965766182667111,46.73664700166798],[7.965594340645417,46.73646788145135],[7.96494991624864,46.73612901749661],[7.964670957864354,46.73569851113618],[7.9643030481677854,46.735538282959645],[7.964013115151795,46.73532372111374],[7.963500944919313,46.73512817112649],[7.963434130217433,46.73498454768356],[7.963184064617166,46.73483277014255],[7.962890821452258,46.73427638594611],[7.96241800134005,46.73408964619305],[7.96175286196591,46.73430858958623],[7.96142569971081,46.73430109162763],[7.960677968371945,46.734097611158205],[7.960414744814442,46.73393689206441],[7.95973408585308,46.73390401638548],[7.959510982279258,46.73383306868623],[7.959379025734449,46.73371672685416],[7.9593008754435495,46.73375306566841],[7.959550751565922,46.733886861236684],[7.959591041579144,46.73399462528912],[7.959814319550941,46.73408356333535],[7.95997331228486,46.73428973777102],[7.960130482060743,46.73430701169135],[7.960551398621439,46.734538976283964],[7.961094505244215,46.735229158645545],[7.960991405582297,46.73539155178234],[7.960860311912175,46.735365164187144],[7.960373884622813,46.735124504284634],[7.960149645851769,46.73493661958018],[7.959558647548339,46.73470542920483],[7.95928381560567,46.7346976864546],[7.959036883611474,46.734869728893926],[7.9593425663570745,46.73536309656966],[7.9605790876652796,46.7360501186181],[7.961025577616292,46.73621899511418],[7.961798983851001,46.73636838193718],[7.962923117286267,46.736255280659755],[7.964454584704668,46.736320207129744],[7.965031310550966,46.73642549893316],[7.965714111790073,46.73667422887558]]]}},{"type":"Feature","properties":{"kind":"edge","name":"Kante #11A","depth_min":5.8,"depth_max":90.5,"slope_median":31.8,"slope_p90":47.5,"area_m2":44870},"geometry":{"type":"Polygon","coordinates":[[[7.9665959002622495,46.73720090047875],[7.9661093429334695,46.736951269845385],[7.965659582694553,46.73644958918552],[7.965002162346892,46.73611978112922],[7.964828659161422,46.735769750060975],[7.964578410773206,46.73559998509641],[7.964315956338901,46.73552023226077],[7.964012852607947,46.73529673536973],[7.9636718136797455,46.735208346792255],[7.963540194529889,46.73512799078672],[7.963460121711276,46.73496643697639],[7.9632098813622285,46.73479666899379],[7.963195574955358,46.73467079558191],[7.962956323776097,46.73428508097206],[7.962430648049722,46.734044609953344],[7.962310982544097,46.73384725427226],[7.962100086761169,46.73368629915434],[7.961848549379358,46.733381599391365],[7.962240160654847,46.73328984855943],[7.962750562827786,46.733305499231044],[7.96347273733297,46.7335720530973],[7.96381481532964,46.733768385282545],[7.964026329155902,46.73399230397311],[7.964252853883952,46.73441405754339],[7.964397993289554,46.73453932876198],[7.96508182002114,46.73489600551931],[7.965333207275626,46.735182707605674],[7.965859346163204,46.73546814144663],[7.96592608009177,46.735602768214775],[7.966465661302719,46.73592411983912],[7.966782741960116,46.736237502158914],[7.966929476208546,46.736524684536306],[7.9669318523073285,46.73676755613641],[7.9668036558092235,46.73703801843624],[7.9665959002622495,46.73720090047875]]]}},{"type":"Feature","properties":{"kind":"edge","name":"Kante #11B","depth_min":1.7,"depth_max":44.5,"slope_median":26.7,"slope_p90":32.6,"area_m2":11450},"geometry":{"type":"Polygon","coordinates":[[[7.958779379438031,46.735302692676505],[7.958879365916519,46.73481647245783],[7.958982644189172,46.73467207172542],[7.95919093324402,46.73456317502296],[7.959202802364777,46.73443718187121],[7.959123523844751,46.734356582277925],[7.95890059252131,46.73430362389338],[7.958453259242078,46.73404478650813],[7.958148024776153,46.73359639264846],[7.958224877427619,46.733425125810804],[7.958419128067793,46.7332173422094],[7.958718298650117,46.733036067584884],[7.95907057802086,46.73293551106057],[7.958914972464812,46.73308015025175],[7.959021627753783,46.73328656436428],[7.958970856767269,46.73344871730832],[7.959154796286609,46.73352884016463],[7.959090855922133,46.73368205751615],[7.958999709296364,46.733727450981725],[7.959000576052992,46.73381740351509],[7.959105846029007,46.7338798934817],[7.959276010519511,46.73388811371987],[7.959815014048021,46.73415552535437],[7.959867953681697,46.734218253355685],[7.959817618428531,46.7344253829205],[7.959935452593785,46.734433840915855],[7.9599492303135015,46.73450574322854],[7.95976702237349,46.734605526702616],[7.9596100254012265,46.73460624278598],[7.959531006320051,46.734552629233775],[7.959127078453599,46.73472538762963],[7.958932825107654,46.73493317240257],[7.958779379438031,46.735302692676505]]]}},{"type":"Feature","properties":{"kind":"edge","name":"Kante #11C","depth_min":43.7,"depth_max":50.7,"slope_median":19.1,"slope_p90":20.9,"area_m2":310},"geometry":{"type":"Polygon","coordinates":[[[7.960631328890087,46.73333319408004],[7.960433957435427,46.73321715235256],[7.96031629964018,46.73322668537704],[7.96026344734398,46.73317295283004],[7.9603418568406195,46.7331635991125],[7.9603414223481215,46.733118622847805],[7.960564002444089,46.73313559741134],[7.960630546366939,46.73325223680691],[7.960631328890087,46.73333319408004]]]}},{"type":"Feature","properties":{"kind":"edge","name":"Kante #11D","depth_min":40.9,"depth_max":46.4,"slope_median":19.0,"slope_p90":20.6,"area_m2":320},"geometry":{"type":"Polygon","coordinates":[[[7.960659668229103,46.73355795582341],[7.960567653764609,46.73351339802002],[7.960567132144266,46.733459426505505],[7.961077448414785,46.73346608941326],[7.960973482026542,46.73353853004588],[7.960659668229103,46.73355795582341]]]}},{"type":"Feature","properties":{"kind":"profile","name":"Tiefenprofil #11","length_m":240,"depth_start":21.5,"depth_end":105.4},"geometry":{"type":"LineString","coordinates":[[7.96202208215288,46.73533994685809],[7.9620823520819295,46.73532245828455],[7.962142621971873,46.735304969679106],[7.962202891822714,46.73528748104177],[7.9622631616344455,46.73526999237255],[7.962323431407074,46.73525250367144],[7.962383701140598,46.73523501493844],[7.962443970835015,46.735217526173535],[7.962504240490329,46.735200037376764],[7.962564510106535,46.735182548548124],[7.962624779683628,46.735165059687574],[7.962685049221625,46.735147570795114],[7.96274531872051,46.735130081870814],[7.962805588180297,46.73511259291458],[7.962865857600975,46.73509510392649],[7.962926126982547,46.73507761490649],[7.962986396325013,46.73506012585459],[7.963046665628373,46.735042636770835],[7.963106934892628,46.735025147655186],[7.96316720411778,46.73500765850766],[7.963227473303821,46.73499016932824],[7.963287742450756,46.73497268011692],[7.96334801155859,46.73495519087371],[7.963408280627316,46.734937701598625],[7.963468549656932,46.73492021229164],[7.963528818647445,46.734902722952754],[7.963589087598853,46.73488523358199],[7.9636493565111515,46.734867744179354],[7.963709625384347,46.734850254744856],[7.9637698942184345,46.73483276527842],[7.963830163013412,46.73481527578008],[7.963890431769287,46.73479778624989],[7.963950700486057,46.73478029668784],[7.96401096916372,46.73476280709385],[7.964071237802277,46.73474531746799],[7.964131506401727,46.73472782781024],[7.964191774962071,46.73471033812065],[7.964252043483309,46.73469284839913],[7.964312311965437,46.73467535864569],[7.964372580408462,46.73465786886042],[7.964432848812382,46.73464037904322],[7.964493117177191,46.734622889194185],[7.964553385502896,46.7346053993132],[7.964613653789496,46.73458790940039],[7.964673922036986,46.73457041945561],[7.964734190245371,46.73455292947904],[7.964794458414648,46.73453543947054],[7.964854726544819,46.73451794943013],[7.964914994635883,46.73450045935788]]}}]}