{"type":"FeatureCollection","features":[{"type":"Feature","properties":{"kind":"auto_slope","id":1,"name":"Automatischer Hang A1","depth_shallow_m":23.2,"depth_median_m":91.7,"depth_deep_m":159.6,"relief_m":136.4,"slope_median_deg":29.1,"slope_p90_deg":41.5,"area_m2":740048},"geometry":{"type":"Polygon","coordinates":[[[7.970623882796386,46.73965601854331],[7.976498369681134,46.73959252954547],[7.9762739665538875,46.739395681408745],[7.97603782380248,46.73933382289792],[7.975920423941568,46.739370357720006],[7.975695934379398,46.73916451320614],[7.975473145758668,46.73912957771925],[7.97530081654541,46.73890549600097],[7.974879534419212,46.73864660025538],[7.974852294383086,46.73853878024861],[7.974259141257229,46.738100775708595],[7.973861898230295,46.73762586778309],[7.973717619897049,46.73759056103575],[7.973150475708662,46.73713443763718],[7.972953686452343,46.737081384303295],[7.972650716047361,46.73687590088942],[7.972135122589521,46.73633857058835],[7.971885026209627,46.736186812150436],[7.971687975268254,46.73610677090351],[7.9714398338324495,46.73615290679548],[7.970849305713674,46.735975746417445],[7.970415693195513,46.7357888569915],[7.9698232257683905,46.73541379594958],[7.969351167312375,46.73530804215941],[7.968784172395826,46.73486089217783],[7.968468941595617,46.73473641552586],[7.968007858483119,46.73441470959697],[7.967300670575057,46.73434601935418],[7.96600044534152,46.73383927702922],[7.964896223070462,46.73330463020541],[7.963987387100806,46.732679117817256],[7.963093139729597,46.73220645736146],[7.962068956070501,46.731824341940076],[7.961283054229085,46.73172898825447],[7.9609941977768806,46.7316223616897],[7.960599292804521,46.73137228859584],[7.960427310944418,46.73117516998141],[7.960439350252202,46.731067167164106],[7.959992036439241,46.73080833572426],[7.959767209360967,46.73055748338972],[7.959280136594545,46.73024485664707],[7.958447224724575,46.72934008913566],[7.958184550238828,46.72923333636073],[7.957909746389365,46.72922559029489],[7.957437333457718,46.729074810824365],[7.9571492760654605,46.72904913182198],[7.957042809009849,46.72886070638283],[7.956871883913956,46.728771525469966],[7.95643012553632,46.72908837662094],[7.956167714857641,46.72900860497688],[7.954878139250349,46.72822282319452],[7.954719613653974,46.728061617830974],[7.954588111225741,46.727990246693885],[7.954260644808809,46.727946747125145],[7.953890501987906,46.72754361312574],[7.9537596024593356,46.72753520787232],[7.953233776461263,46.727267708494054],[7.953167170235357,46.72714206944325],[7.953049267397379,46.727124609183534],[7.952917084265961,46.72698127399689],[7.9526674278281435,46.72686545432354],[7.952414692098075,46.726425804551816],[7.951993104436925,46.726112852330665],[7.951835961156664,46.7260955671801],[7.9517200263591885,46.72628499666445],[7.951525176962389,46.72642980214671],[7.9514336092203655,46.72643021326992],[7.951235599887864,46.72624219340591],[7.95111812638613,46.72626970748008],[7.9508411207976115,46.726028067442435],[7.950381495727156,46.72584121896015],[7.949525702638304,46.72526033272677],[7.949131832629984,46.7251091677095],[7.948671286996041,46.72482336435173],[7.948052166584969,46.72436734915856],[7.947868614035069,46.72432318939917],[7.946959026565883,46.7235806021788],[7.94630221570153,46.723286666963446],[7.946333497597312,46.7266149173764],[7.947093559464798,46.72675546695203],[7.948500634001735,46.72753181617788],[7.948691333437259,46.728331577310776],[7.94941515821997,46.728787120928004],[7.949613510957329,46.72901112496221],[7.950269387074341,46.72919709775073],[7.950874220115956,46.72951823037888],[7.9517958471743295,46.73013479345313],[7.952231317089726,46.73052864480608],[7.952418231661492,46.73092361270137],[7.952433795545334,46.731184416428185],[7.95267235836036,46.73150718641827],[7.952723745834401,46.731408003067955],[7.9525906970446165,46.731174714963586],[7.952479192319589,46.730455564899714],[7.952884394238927,46.730417758890965],[7.953370402698217,46.73062246981901],[7.954002035460682,46.73100643472821],[7.954478236056113,46.73155301980108],[7.954361525719826,46.73166149453061],[7.953708264962419,46.73175439837205],[7.953708693909955,46.73179937466839],[7.954467301604471,46.7317779603466],[7.955043443269696,46.73182933116],[7.9565918263363855,46.73230808597441],[7.95680235505333,46.732433070277715],[7.957406053604459,46.73262823456092],[7.957682776715381,46.7328338774559],[7.957960885954744,46.733183443751095],[7.958360899493068,46.73396424591237],[7.9591896326158045,46.734428246235844],[7.959203842893376,46.73454512490086],[7.958982644189172,46.73467207172542],[7.958802859939342,46.73502372071955],[7.958766122908757,46.73528476174102],[7.958885865286043,46.73549111636222],[7.958857445672856,46.73525735897392],[7.958959078100836,46.73494204847798],[7.95916641449033,46.734734204047534],[7.959414126164368,46.73464311859492],[7.959715384420634,46.73467772743656],[7.960201196593181,46.734855423400276],[7.960728174772095,46.735230833434755],[7.9609901004275265,46.735256623027965],[7.960565177189597,46.73461087852143],[7.9601572561638925,46.73436985900301],[7.959960923975366,46.73436175949303],[7.959814579987129,46.73411054909253],[7.959196472572027,46.73378052841315],[7.959389679863912,46.73346480012528],[7.959230951935118,46.73328561061828],[7.9592396989532475,46.7328357883039],[7.95900325779233,46.732737913461975],[7.958923115459228,46.73256736116973],[7.958961063212273,46.7324322535863],[7.959168910148884,46.73227838062313],[7.958972585725972,46.732270279409875],[7.9588531101154,46.73209091057242],[7.958995717217576,46.73195532630002],[7.959244717112166,46.73199917001458],[7.959439305666296,46.731827365663094],[7.959937739545762,46.731960026884394],[7.959936697597307,46.73185208383089],[7.959646975345199,46.731655501308154],[7.959698870860835,46.73161028634611],[7.960014063128337,46.731734787282534],[7.960701129636507,46.7324333100706],[7.961425198052478,46.732897772494994],[7.961572417293057,46.73323893338139],[7.962271646640252,46.73383843893821],[7.962404569410296,46.734053725177276],[7.962943415445498,46.734303131519546],[7.96319706037168,46.73482371481804],[7.963447300805901,46.734993482828266],[7.963514028122867,46.73512811101476],[7.963999944388857,46.735314786034756],[7.964276706445315,46.73552041286756],[7.96464452832102,46.735671645882135],[7.96480275538719,46.735796856325464],[7.964962912019042,46.736119961972186],[7.965607336389266,46.73645882585378],[7.9660570083606075,46.736951511474345],[7.965978857881727,46.7369878548522],[7.965519525737705,46.736846043843194],[7.965388777300192,46.736855642439316],[7.966912109167233,46.73742432995594],[7.967583522091925,46.737844018803955],[7.968882975485528,46.73826079044364],[7.969146687287869,46.738466466118304],[7.9694912047357205,46.738905652666794],[7.970623882796386,46.73965601854331]],[[7.965624377260773,46.73418284736013],[7.965426816450045,46.73404882378929],[7.965452017049172,46.73394975539214],[7.9657024361173745,46.73413750896603],[7.965624377260773,46.73418284736013]],[[7.959475603322922,46.73152134805005],[7.959422840278994,46.73147661035869],[7.959487904874539,46.73144033110316],[7.95954066793696,46.73148506876458],[7.959475603322922,46.73152134805005]],[[7.9541538155022975,46.72908967681246],[7.953707148768162,46.72889378749645],[7.953495354810047,46.72863386849461],[7.952997567197117,46.72856414590729],[7.952681211091964,46.72831369184762],[7.952928818566683,46.72821362515555],[7.953229436802878,46.72818528431167],[7.953349742290661,46.72845461174454],[7.953901486308561,46.728695006751096],[7.9541389307552395,46.72890083535543],[7.95430950819843,46.7289540393175],[7.954284203578661,46.72904411004313],[7.9541538155022975,46.72908967681246]],[[7.9528609272490955,46.72795305698584],[7.952807830654013,46.727872335161926],[7.952885805504209,46.72781801024689],[7.952965150743396,46.727907609497],[7.9528609272490955,46.72795305698584]],[[7.952175815478893,46.72744338718559],[7.9520964722347,46.727353787381794],[7.95217282205378,46.727128552917875],[7.952144179390715,46.72686780785006],[7.952209243321489,46.7268315327298],[7.9526833341913745,46.727162239188935],[7.952435388810001,46.72722632430086],[7.952306286793934,46.72740681793459],[7.952175815478893,46.72744338718559]],[[7.9517020670395215,46.727148659687344],[7.951649314725671,46.72710391837833],[7.951766618857881,46.7270584132288],[7.951819371224557,46.72710315448373],[7.9517020670395215,46.727148659687344]],[[7.950083516390447,46.728910069437696],[7.949729714382026,46.72884868347113],[7.949596940159201,46.728642377605425],[7.948939628304696,46.72830348141362],[7.948911340587641,46.728078716633036],[7.949053027003432,46.727844196804774],[7.949250014131152,46.72792427723114],[7.949513770633201,46.72814798906044],[7.949594387215842,46.7283725196396],[7.950068475595581,46.72870323691633],[7.950161580679719,46.72886474165677],[7.950083516390447,46.728910069437696]]]}},{"type":"Feature","properties":{"kind":"auto_slope","id":2,"name":"Automatischer Hang A2","depth_shallow_m":41.0,"depth_median_m":45.1,"depth_deep_m":50.0,"relief_m":8.9,"slope_median_deg":17.1,"slope_p90_deg":19.5,"area_m2":3268},"geometry":{"type":"Polygon","coordinates":[[[7.960660189943035,46.73361192733696],[7.961065148789639,46.73354710651378],[7.9611425142981265,46.73342980922147],[7.960815270483306,46.733413314258904],[7.960484549958475,46.733037008247024],[7.960221940302925,46.732939255461105],[7.960052039212767,46.732958022393824],[7.959844192176338,46.73311189695528],[7.959871746733529,46.73325570162137],[7.9599506774190685,46.733300319691914],[7.960054471020815,46.73320988948377],[7.960357894213265,46.733469377956865],[7.960660189943035,46.73361192733696]]]}},{"type":"Feature","properties":{"kind":"auto_slope","id":3,"name":"Automatischer Hang A3","depth_shallow_m":168.1,"depth_median_m":173.8,"depth_deep_m":178.8,"relief_m":10.7,"slope_median_deg":24.7,"slope_p90_deg":31.8,"area_m2":10280},"geometry":{"type":"Polygon","coordinates":[[[7.9777729111047275,46.727019580252446],[7.978230574033756,46.72699942764451],[7.978347585819572,46.72692690941381],[7.97828020244315,46.72672932307159],[7.978082637484503,46.72659532132006],[7.977896717524529,46.7263173335264],[7.9773964969731574,46.726004845796126],[7.977224470823983,46.7258077524054],[7.976804447028214,46.72566580161734],[7.976542739583306,46.725658038818075],[7.97629599361774,46.72583911404506],[7.976258989373701,46.72606417996786],[7.976417215217659,46.7261893744252],[7.976560837655027,46.726161711069686],[7.976759383135971,46.72639466318032],[7.977298757327436,46.72669797337092],[7.9773260859969115,46.72681478817866],[7.9777729111047275,46.727019580252446]],[[7.977770307004426,46.726758718130014],[7.977625247245621,46.72664245907308],[7.977557866871905,46.726444872298025],[7.977268199142107,46.726257329682994],[7.976992780066225,46.72618666288047],[7.976676684905177,46.72597225633131],[7.976728560667719,46.725927033591645],[7.97763590448925,46.726399525697055],[7.977835263751926,46.726713433141576],[7.977770307004426,46.726758718130014]]]}},{"type":"Feature","properties":{"kind":"auto_slope","id":4,"name":"Automatischer Hang A4","depth_shallow_m":145.3,"depth_median_m":170.0,"depth_deep_m":178.5,"relief_m":33.2,"slope_median_deg":22.1,"slope_p90_deg":33.9,"area_m2":9677},"geometry":{"type":"Polygon","coordinates":[[[7.980165339008587,46.72295121332483],[7.980202956176672,46.72278911279291],[7.980005581200798,46.72267310481284],[7.979809288626238,46.722665039466975],[7.979650164220315,46.7224498971866],[7.979269220342628,46.72228977903269],[7.979528749861225,46.7220816496064],[7.980172376470757,46.72234846969932],[7.980165792712847,46.7216918165666],[7.979027839163876,46.72169720689958],[7.979187138914409,46.721930340564114],[7.97893942907058,46.72201247384397],[7.978714550520474,46.721761658637796],[7.978491562125411,46.72169974323372],[7.978308622880257,46.7217185992216],[7.978348761522431,46.721808366285394],[7.978571660280997,46.72186128671823],[7.978546849109462,46.72199633914202],[7.978706147663952,46.722229473471224],[7.978811417852316,46.722291945322546],[7.978889358429309,46.72223760259413],[7.978968288721683,46.722282207552624],[7.97890414806584,46.72240845044958],[7.978785527583199,46.72231905480266],[7.97879977714823,46.722435931175795],[7.979062639338524,46.72256062703104],[7.979271741440471,46.72254164599688],[7.979733511165525,46.72293526877303],[7.97996832414559,46.722871186272634],[7.980165339008587,46.72295121332483]]]}},{"type":"Feature","properties":{"kind":"auto_breakzone","name":"Automatisch erkannte Gef\u00e4lle\u00e4nderung","depth_median_m":4.3,"slope_median_deg":31.1,"area_m2":2600},"geometry":{"type":"Polygon","coordinates":[[[7.970241427163471,46.73935194670113],[7.97067639724198,46.73967376529578],[7.9706626038920785,46.739601864320456],[7.970280059858034,46.73928879736709],[7.970069915773644,46.739208814239525],[7.969437541895241,46.738770967242644],[7.9691721482575035,46.73839438267037],[7.9689609491619136,46.73820645459809],[7.9676616727302445,46.73780767432989],[7.96730673549079,46.737638400049015],[7.9669769118638065,46.73736106071978],[7.966806823219822,46.73736184722001],[7.9667940914058955,46.737397888684825],[7.966991051784204,46.73746894313292],[7.967307528104229,46.73771935723722],[7.967583522091925,46.737844018803955],[7.968882975485528,46.73826079044364],[7.969146687287869,46.738466466118304],[7.9693327808372985,46.73876245829062],[7.9694912047357205,46.738905652666794],[7.969846334168329,46.73909291060478],[7.970018110164968,46.73926302912289],[7.970241427163471,46.73935194670113]]]}},{"type":"Feature","properties":{"kind":"auto_breakzone","name":"Automatisch erkannte Gef\u00e4lle\u00e4nderung","depth_median_m":119.1,"slope_median_deg":37.1,"area_m2":46616},"geometry":{"type":"Polygon","coordinates":[[[7.9667271771458426,46.73724527196321],[7.966779160083525,46.73720904905075],[7.966699866158592,46.7371284547493],[7.966411057975319,46.7370308372133],[7.966147803001179,46.736870131404835],[7.965711214383115,46.73637738577402],[7.965066790333424,46.73603852247636],[7.964946584722826,46.73578719812392],[7.9647618401268625,46.73562612740606],[7.964354505656668,46.73544808965992],[7.9641436850456095,46.735296133597345],[7.963618343956381,46.73509164907263],[7.963498759206457,46.734903289909255],[7.963301201040521,46.73476926266653],[7.963273636561192,46.734625458852896],[7.962981791048042,46.73421299887331],[7.96249588823939,46.734026319492614],[7.962309935807217,46.73373931126266],[7.962019497325131,46.73347077279954],[7.961901403460092,46.733435331202514],[7.961624399830787,46.73320271280278],[7.9615963179789215,46.73300493704674],[7.961490088836463,46.73284350159779],[7.9611220340233,46.732665272604116],[7.960949959128105,46.732459159552604],[7.960778929189192,46.73236098927792],[7.9603563775670905,46.73195811564427],[7.959961038930653,46.731663064077374],[7.959606079555628,46.73148477046236],[7.959513375439932,46.73136824975671],[7.959551667923983,46.73126912298074],[7.960155884583325,46.73151824426118],[7.960287837423622,46.731634585222096],[7.960431656462702,46.73162493271041],[7.960551049361595,46.731795304648976],[7.960748328898425,46.731902350937816],[7.960878718203717,46.73185677664154],[7.961128241341251,46.731954587765976],[7.961207693408873,46.732053176493366],[7.961509460893537,46.732141752124555],[7.961772940357813,46.732329454480755],[7.963241503596664,46.73266455438676],[7.963373378498127,46.7327718965116],[7.963701756164161,46.7329053223928],[7.964281596012622,46.73333444703896],[7.965306438141187,46.733779509264416],[7.96539907118137,46.73388702998134],[7.965583109524959,46.73397613771284],[7.965753187504021,46.73397535303723],[7.965897977906295,46.73406464136118],[7.96644895610184,46.734215023028156],[7.9666992039518565,46.734384783913676],[7.966975003445357,46.73449145650497],[7.967394277418424,46.73455248615287],[7.967878174283627,46.73453225399918],[7.967970813746847,46.734639772618195],[7.968681184896878,46.73503228751794],[7.969208489005128,46.735434644088194],[7.969707334139701,46.735603243528196],[7.969826411223713,46.73573762470772],[7.970575617614382,46.736084969028965],[7.9713233251428,46.73627938931191],[7.971559005225108,46.73629628139911],[7.971767363958239,46.73619635698689],[7.971885292698739,46.73621379787364],[7.97191137077995,46.73620468048376],[7.971701147499016,46.7361157050938],[7.9714398338324495,46.73615290679548],[7.970862566432121,46.73599367594676],[7.970415958947103,46.73581584271932],[7.970060937648761,46.735637581730785],[7.969889350060185,46.7354854536959],[7.969338084071665,46.73530810294085],[7.968823686744056,46.734887695753876],[7.968468941595617,46.73473641552586],[7.968007858483119,46.73441470959697],[7.967798089349222,46.734370703224236],[7.9673667021310175,46.73440868332517],[7.9670128443587656,46.734347351024],[7.966512876184881,46.73406180155991],[7.9648712847158425,46.73343068423439],[7.964463791299838,46.73323465633734],[7.963975442045461,46.7327961162408],[7.9636070295684975,46.7325819142641],[7.963344503866161,46.732493163915606],[7.9622564705091845,46.73227326516638],[7.961270668258011,46.731801010138994],[7.960824388082508,46.731650125029866],[7.960547659063528,46.73144448973232],[7.959878030154598,46.73119566902154],[7.959206239788842,46.73072196297035],[7.958377736628077,46.73027595309605],[7.958535067375956,46.73031121973698],[7.959061036043984,46.730587689836],[7.96006144224253,46.73122181890403],[7.960547050553147,46.731381522950954],[7.960863200254032,46.73160496934104],[7.961270058899144,46.73173804336396],[7.961387800347578,46.7317375046073],[7.9609941977768806,46.7316223616897],[7.960612548981515,46.73139021932585],[7.960546007395791,46.73127357989617],[7.960375155755559,46.731193399512755],[7.96044013245668,46.731148124457846],[7.960400016682945,46.73105835118184],[7.959992036439241,46.73080833572426],[7.959767209360967,46.73055748338972],[7.9592802233113,46.73025385190362],[7.9589624414904,46.72985949120709],[7.95873866266425,46.72971657990757],[7.9587511381663685,46.72965355353945],[7.958565740328767,46.72942051061516],[7.958447224724575,46.72934008913566],[7.95825056493625,46.72929600564449],[7.958197632017701,46.729233276858814],[7.957935909943928,46.72922547135269],[7.958501976335045,46.72959171822055],[7.958635133406566,46.72983399472491],[7.959163265357554,46.730335345793854],[7.959808191763175,46.73073720945066],[7.959940576081059,46.73089852710106],[7.960309049375143,46.731121736216906],[7.9602569810791595,46.73114896094918],[7.960046623059212,46.73104197351704],[7.959124799440446,46.73041648193643],[7.958638424548906,46.73017581450232],[7.95836266363116,46.730069121699714],[7.958087942013308,46.73007037132138],[7.957866845523092,46.730206311301366],[7.957922200737646,46.73052090744285],[7.958477882558657,46.73116606681202],[7.9588991141048835,46.73143401860638],[7.95881880075664,46.731245475704846],[7.958594756747027,46.731075578375965],[7.958132033353462,46.730573927257446],[7.95810483089098,46.73046610315821],[7.958247781755271,46.730366500826655],[7.958352611308998,46.73038401522597],[7.958262681299527,46.73055534171742],[7.958289711018442,46.73064517526411],[7.958673163482572,46.731066225803715],[7.9588838654796925,46.731209196793046],[7.95896218569421,46.73119084876623],[7.958961579038515,46.73112788197479],[7.958723846495391,46.73089507769369],[7.958762053463845,46.73078695592131],[7.958433268047428,46.730608539500935],[7.958419233624666,46.73050965120373],[7.959156252047089,46.730965073346084],[7.9592098814315495,46.73109976372166],[7.9594075027180455,46.73124279336095],[7.959540754699166,46.73149406401973],[7.9597911417717695,46.731681830624034],[7.960080083015609,46.73179745549019],[7.96064914722041,46.732469530231356],[7.961399555171119,46.7329518637518],[7.961506916463632,46.73323023755956],[7.961875499335799,46.73346243680892],[7.962008506774198,46.73368671876969],[7.962246004160716,46.73389253037985],[7.96233906745659,46.73404502983416],[7.96289143273283,46.73433935269505],[7.963144727851399,46.73482395511066],[7.96338197235965,46.73500277858253],[7.9635014694931066,46.73518214261778],[7.963961219679721,46.73536893802085],[7.964211640147839,46.73555669483931],[7.9646714836151205,46.7357524826187],[7.964923837026768,46.73613813329459],[7.965581344897204,46.73647693704743],[7.965792437620145,46.736655876168534],[7.965938552861181,46.7368800930922],[7.9661360374490275,46.737005120490274],[7.9667271771458426,46.73724527196321]],[[7.958298465460576,46.73019535289275],[7.95823296885727,46.730186655187495],[7.958272041790746,46.7301684861459],[7.958298465460576,46.73019535289275]],[[7.9580254733443,46.73037650750947],[7.957945943073005,46.73026892128951],[7.9580106611851695,46.73019666184164],[7.958115230764637,46.73018719068677],[7.958181938817495,46.73032182206319],[7.9580254733443,46.73037650750947]]]}},{"type":"Feature","properties":{"kind":"auto_breakzone","name":"Automatisch erkannte Gef\u00e4lle\u00e4nderung","depth_median_m":86.0,"slope_median_deg":37.4,"area_m2":5540},"geometry":{"type":"Polygon","coordinates":[[[7.967679468030581,46.736953005051916],[7.967692287278633,46.73692595873011],[7.967599556326629,46.73680944466798],[7.967415064553382,46.73667536399823],[7.967282027246063,46.736451088417226],[7.967032560148849,46.73636228605126],[7.966692125270353,46.73633687322956],[7.966495081492095,46.73625682301122],[7.9664003322490755,46.73593341732163],[7.9660951088476715,46.73549404007376],[7.965489328243082,46.73509203117244],[7.965343307452724,46.73487680887666],[7.964974787646508,46.734653616119736],[7.964895324856751,46.73455503004503],[7.964238982896593,46.734333160501045],[7.96397749770902,46.73435235461269],[7.964004188808063,46.73440620577191],[7.964437592805297,46.734575129107164],[7.964686346349385,46.73459197518162],[7.9648178782512105,46.73466333462096],[7.964779768323008,46.73478045362455],[7.96501640429345,46.73489630696247],[7.965293957631188,46.73518288856257],[7.9659783255127286,46.73559353139962],[7.966018981050917,46.73573727414509],[7.966270201428097,46.736005983647935],[7.966404112578289,46.736320212872485],[7.966509308091521,46.736373700742334],[7.967059607394269,46.736452117461766],[7.967296519796778,46.736594951780305],[7.967429469432249,46.736810232097014],[7.967679468030581,46.736953005051916]]]}},{"type":"Feature","properties":{"kind":"auto_breakzone","name":"Automatisch erkannte Gef\u00e4lle\u00e4nderung","depth_median_m":41.4,"slope_median_deg":39.1,"area_m2":541},"geometry":{"type":"Polygon","coordinates":[[[7.965297817698752,46.73557867942863],[7.965415128750654,46.73553316028],[7.965349098086074,46.735470495186696],[7.964731729902795,46.73522146178392],[7.964995674033548,46.735454132867424],[7.965297817698752,46.73557867942863]]]}},{"type":"Feature","properties":{"kind":"auto_breakzone","name":"Automatisch erkannte Gef\u00e4lle\u00e4nderung","depth_median_m":55.2,"slope_median_deg":42.8,"area_m2":1664},"geometry":{"type":"Polygon","coordinates":[[[7.965176998074145,46.73526438857705],[7.965215721486861,46.73521023617742],[7.96514951604162,46.73512958047189],[7.964649550483876,46.73484402286288],[7.964214567810438,46.73451318586403],[7.963965814777417,46.73449633876027],[7.964058708938594,46.734630846303745],[7.964440307932054,46.7348539818035],[7.964598794959419,46.735006178284955],[7.965176998074145,46.73526438857705]]]}},{"type":"Feature","properties":{"kind":"auto_breakzone","name":"Automatisch erkannte Gef\u00e4lle\u00e4nderung","depth_median_m":9.4,"slope_median_deg":15.6,"area_m2":681},"geometry":{"type":"Polygon","coordinates":[[[7.958883005543463,46.7351942730505],[7.959037056978631,46.73488771939836],[7.959453375435318,46.73464293966176],[7.959491583597278,46.73453481768926],[7.959334933758306,46.73457151440265],[7.9590227602913775,46.73476184546463],[7.958894355562463,46.73501430842661],[7.958883005543463,46.7351942730505]]]}},{"type":"Feature","properties":{"kind":"auto_breakzone","name":"Automatisch erkannte Gef\u00e4lle\u00e4nderung","depth_median_m":3.9,"slope_median_deg":29.4,"area_m2":2457},"geometry":{"type":"Polygon","coordinates":[[[7.959112954990794,46.73461750420974],[7.959217099386372,46.73456305578692],[7.95925574156263,46.73449991015484],[7.9591755091056315,46.73432036282017],[7.958860650269701,46.73423184061269],[7.9584262275462985,46.73395495303349],[7.958227300719716,46.733676992926554],[7.9579599344421155,46.733084495948866],[7.957668829542036,46.73274398434563],[7.957444782929232,46.73257408478491],[7.956801664599889,46.732361108227025],[7.956630642526846,46.73226293172965],[7.955830455402591,46.732041666195855],[7.955108339191708,46.73177506388842],[7.954663623556743,46.731786069317],[7.955043443269696,46.73182933116],[7.9558442270359055,46.73211356902315],[7.9565918263363855,46.73230808597441],[7.95680235505333,46.732433070277715],[7.957182612892895,46.73252130127357],[7.957471812297204,46.732663918505665],[7.957682776715381,46.7328338774559],[7.957960885954744,46.733183443751095],[7.958360899493068,46.73396424591237],[7.958795408598043,46.73425012899316],[7.959176376165096,46.734410315346345],[7.959203842893376,46.73454512490086],[7.959112954990794,46.73461750420974]]]}},{"type":"Feature","properties":{"kind":"auto_breakzone","name":"Automatisch erkannte Gef\u00e4lle\u00e4nderung","depth_median_m":123.0,"slope_median_deg":34.1,"area_m2":1480},"geometry":{"type":"Polygon","coordinates":[[[7.965324872609475,46.73432815908851],[7.965533059756951,46.734210255549684],[7.9655189236088315,46.73410237291714],[7.9653601734290005,46.73392319195443],[7.965176574166667,46.73387906010537],[7.964979103255894,46.73375403100312],[7.964480027253796,46.733558425098515],[7.964060501753431,46.73347039897994],[7.963837131833505,46.73337247399182],[7.963929848741413,46.73348899115689],[7.964493723219324,46.73362133161977],[7.965072086355411,46.73389753298068],[7.9653231179765,46.73414825412727],[7.965324872609475,46.73432815908851]]]}},{"type":"Feature","properties":{"kind":"auto_breakzone","name":"Automatisch erkannte Gef\u00e4lle\u00e4nderung","depth_median_m":31.4,"slope_median_deg":19.2,"area_m2":696},"geometry":{"type":"Polygon","coordinates":[[[7.959829746499035,46.73432637545811],[7.95990772360873,46.73427204577942],[7.9599067685035,46.734173098005165],[7.959827402505046,46.734083503646566],[7.959617033886729,46.733976515455964],[7.9593287758018025,46.73393285146743],[7.9593162132556765,46.73398688261651],[7.959408400982283,46.734049431932824],[7.959749859593887,46.73418280953337],[7.959829746499035,46.73432637545811]]]}},{"type":"Feature","properties":{"kind":"auto_breakzone","name":"Automatisch erkannte Gef\u00e4lle\u00e4nderung","depth_median_m":106.2,"slope_median_deg":35.9,"area_m2":628},"geometry":{"type":"Polygon","coordinates":[[[7.965166824052005,46.73422093984602],[7.965232238959302,46.73422063831652],[7.96523171266197,46.73416666682744],[7.965099304484888,46.73400535537734],[7.964324259285799,46.73368508116278],[7.964561502694972,46.73386390220302],[7.964981908816894,46.73404187896032],[7.965166824052005,46.73422093984602]]]}},{"type":"Feature","properties":{"kind":"auto_breakzone","name":"Automatisch erkannte Gef\u00e4lle\u00e4nderung","depth_median_m":52.6,"slope_median_deg":12.0,"area_m2":336},"geometry":{"type":"Polygon","coordinates":[[[7.960616941947768,46.73319832507195],[7.9606291552204675,46.73310831276399],[7.960444519620674,46.73295623025817],[7.960287093015123,46.73291197100862],[7.960117192033631,46.73293073803844],[7.960458645313214,46.73306411353279],[7.960616941947768,46.73319832507195]]]}},{"type":"Feature","properties":{"kind":"auto_breakzone","name":"Automatisch erkannte Gef\u00e4lle\u00e4nderung","depth_median_m":112.7,"slope_median_deg":29.8,"area_m2":438},"geometry":{"type":"Polygon","coordinates":[[[7.963717025361687,46.733130143520356],[7.96375574870777,46.733075991603826],[7.9636503000105785,46.732995515423184],[7.963426757977682,46.732879599124864],[7.963151323219328,46.73280889893809],[7.963204352788591,46.732880620650846],[7.963717025361687,46.733130143520356]]]}},{"type":"Feature","properties":{"kind":"auto_breakzone","name":"Automatisch erkannte Gef\u00e4lle\u00e4nderung","depth_median_m":160.1,"slope_median_deg":59.5,"area_m2":1422},"geometry":{"type":"Polygon","coordinates":[[[7.962321446931945,46.73222798904475],[7.9625568446790345,46.73221791398651],[7.962582660591786,46.73218181296941],[7.9623334826802,46.732119986039756],[7.961939265154143,46.73194187962106],[7.961938829338722,46.73189690335642],[7.962581700613647,46.732082865194904],[7.962673103299907,46.732064454614665],[7.962029621682279,46.731815526520656],[7.961780968916688,46.73180766989918],[7.96183416996898,46.73189738276301],[7.9616115074769205,46.73187141542341],[7.961940746931994,46.73209479891914],[7.962321446931945,46.73222798904475]]]}},{"type":"Feature","properties":{"kind":"auto_breakzone","name":"Automatisch erkannte Gef\u00e4lle\u00e4nderung","depth_median_m":65.6,"slope_median_deg":23.9,"area_m2":362},"geometry":{"type":"Polygon","coordinates":[[[7.959265765698003,46.73146833071333],[7.959410018178244,46.73150365576692],[7.9593557807738815,46.731305998703185],[7.959052721301127,46.73108248852667],[7.959027163578859,46.731145574516546],[7.959224611130199,46.73127061396053],[7.959265765698003,46.73146833071333]]]}},{"type":"Feature","properties":{"kind":"auto_breakzone","name":"Automatisch erkannte Gef\u00e4lle\u00e4nderung","depth_median_m":15.7,"slope_median_deg":20.0,"area_m2":2365},"geometry":{"type":"Polygon","coordinates":[[[7.953791518807461,46.73088144523572],[7.954331839348244,46.73129280702949],[7.954318069941722,46.73122090401324],[7.954093353398505,46.73097903576346],[7.953119614464539,46.730389712790206],[7.9524248958079395,46.730248909256474],[7.952213102708678,46.72998898791105],[7.95198934123815,46.72984606336844],[7.951792855819543,46.729819959266976],[7.952135893759841,46.730124269712086],[7.952372396552952,46.73023115408216],[7.952531178282247,46.73041934845566],[7.952937150820315,46.730462499612685],[7.953357320576969,46.730622528767064],[7.953791518807461,46.73088144523572]]]}},{"type":"Feature","properties":{"kind":"auto_breakzone","name":"Automatisch erkannte Gef\u00e4lle\u00e4nderung","depth_median_m":10.2,"slope_median_deg":20.8,"area_m2":810},"geometry":{"type":"Polygon","coordinates":[[[7.952536399381363,46.730968059389554],[7.952546571379243,46.73066216165895],[7.952453028156135,46.73045568258977],[7.951873313432993,46.73002649766965],[7.951979593725007,46.73019693738704],[7.9522957865179045,46.730429402819226],[7.952536399381363,46.730968059389554]]]}},{"type":"Feature","properties":{"kind":"auto_breakzone","name":"Automatisch erkannte Gef\u00e4lle\u00e4nderung","depth_median_m":3.6,"slope_median_deg":28.1,"area_m2":1092},"geometry":{"type":"Polygon","coordinates":[[[7.952311435221516,46.73069920183812],[7.952324175135218,46.73066316196458],[7.952177876772832,46.730411941664435],[7.951927949566187,46.73026913462882],[7.951821840239245,46.73011668538927],[7.951439472931932,46.729803554924814],[7.950820954346216,46.72941951711601],[7.950269387074341,46.72919709775073],[7.950414479939906,46.72932238683532],[7.950900469145283,46.72952710831463],[7.951703589522345,46.73006324269407],[7.951941544557027,46.73032304741706],[7.952231317089726,46.73052864480608],[7.952311435221516,46.73069920183812]]]}},{"type":"Feature","properties":{"kind":"auto_breakzone","name":"Automatisch erkannte Gef\u00e4lle\u00e4nderung","depth_median_m":42.5,"slope_median_deg":35.6,"area_m2":486},"geometry":{"type":"Polygon","coordinates":[[[7.952632068122956,46.73002308607731],[7.952656947906877,46.72988803941856],[7.952512105067564,46.729789738981445],[7.952249183516841,46.729655986752164],[7.952000114634512,46.72960313248839],[7.952460547590228,46.72987093172969],[7.952632068122956,46.73002308607731]]]}},{"type":"Feature","properties":{"kind":"auto_breakzone","name":"Automatisch erkannte Gef\u00e4lle\u00e4nderung","depth_median_m":142.2,"slope_median_deg":39.4,"area_m2":7544},"geometry":{"type":"Polygon","coordinates":[[[7.956724395567577,46.72976171610932],[7.956789718810295,46.72975242416367],[7.956762778334179,46.72967158551188],[7.956235537279569,46.72926017588824],[7.955170922681495,46.728743247312536],[7.9540775042121075,46.727947573691445],[7.953735841761955,46.72778719322761],[7.95332757430126,46.72750117278494],[7.95262878340807,46.726928597775135],[7.952194708123845,46.72667867203475],[7.952090144309883,46.72668813776372],[7.952288757074459,46.72693912299027],[7.952670338517999,46.72717129332271],[7.952749853692204,46.727278883257725],[7.952881180662798,46.72733226599186],[7.953500976206033,46.727851221660885],[7.953960800874968,46.72805604805331],[7.954487755051978,46.728440482462226],[7.9548029167524845,46.7285649978449],[7.955107062689876,46.728905457770566],[7.955501235439507,46.729083587866526],[7.955384790703033,46.7292190494539],[7.955790670353826,46.729253195196215],[7.955987586471798,46.72932426871015],[7.956724395567577,46.72976171610932]]]}},{"type":"Feature","properties":{"kind":"auto_breakzone","name":"Automatisch erkannte Gef\u00e4lle\u00e4nderung","depth_median_m":168.6,"slope_median_deg":46.8,"area_m2":2054},"geometry":{"type":"Polygon","coordinates":[[[7.956933015508404,46.72968880450878],[7.956958920304265,46.72966170001404],[7.956733249216665,46.729320889074906],[7.956575577481899,46.72924963890588],[7.956443207281942,46.72908831732035],[7.956062543976766,46.72895510752538],[7.955719921911863,46.72869578515897],[7.955576282036299,46.728723422252806],[7.955642809722425,46.72884006461429],[7.9559320714625335,46.72899168106847],[7.956432454009556,46.72933124863382],[7.956590988460849,46.72949245159404],[7.956933015508404,46.72968880450878]]]}},{"type":"Feature","properties":{"kind":"auto_breakzone","name":"Automatisch erkannte Gef\u00e4lle\u00e4nderung","depth_median_m":109.9,"slope_median_deg":25.5,"area_m2":4014},"geometry":{"type":"Polygon","coordinates":[[[7.954341426302268,46.72955660370606],[7.954393238346688,46.7295023958875],[7.954300119484469,46.72934089461341],[7.9540106029530895,46.72916228824028],[7.95383890965439,46.72899214542835],[7.953694238631893,46.728911837007274],[7.953077941872413,46.728761688225326],[7.953025015497204,46.72869895703502],[7.953182081050233,46.72870724527944],[7.953194562814601,46.72864421951271],[7.953010905823377,46.72859107278926],[7.9528917151447445,46.72843868342445],[7.9527077166836015,46.72834955515866],[7.952746447653321,46.72829540695341],[7.953229608210723,46.72820327483793],[7.953283220041386,46.72833796804044],[7.953335632030945,46.728346727536085],[7.953360423552893,46.72820268543629],[7.9532689385241895,46.72821209329629],[7.953228836876307,46.72812231746956],[7.953163429302366,46.72812261211366],[7.952667444647552,46.728241788608926],[7.952497384569042,46.728242553768254],[7.952433345983808,46.72838677221038],[7.952500037619902,46.728521406936366],[7.952816051558793,46.728735880441555],[7.953617292252323,46.72907410561313],[7.954341426302268,46.72955660370606]]]}},{"type":"Feature","properties":{"kind":"auto_breakzone","name":"Automatisch erkannte Gef\u00e4lle\u00e4nderung","depth_median_m":15.7,"slope_median_deg":22.9,"area_m2":2613},"geometry":{"type":"Polygon","coordinates":[[[7.950648332271044,46.72915042160148],[7.950686895322298,46.729078283572186],[7.950265382160157,46.72877432031623],[7.949908685712918,46.728407095894845],[7.949711440491236,46.72830003081367],[7.949591493910848,46.728066680602126],[7.94907723466371,46.72763718876174],[7.948840919723906,46.72754828806168],[7.949290364145288,46.728041040257544],[7.949474696212892,46.728166155104624],[7.949594557411273,46.728390510170875],[7.949857636487996,46.72854225906987],[7.950121994839062,46.7288289363328],[7.950648332271044,46.72915042160148]]]}},{"type":"Feature","properties":{"kind":"auto_breakzone","name":"Automatisch erkannte Gef\u00e4lle\u00e4nderung","depth_median_m":175.8,"slope_median_deg":43.5,"area_m2":2374},"geometry":{"type":"Polygon","coordinates":[[[7.954984425486536,46.72839326014442],[7.955193730739626,46.72839231380848],[7.954812301723184,46.72817814247507],[7.954640609028351,46.72800800085229],[7.954260644808809,46.727946747125145],[7.954101778475328,46.72774955984682],[7.953904870595081,46.72767848306427],[7.953509598648757,46.72738340899576],[7.953391780901773,46.727374944354374],[7.953154688786826,46.72720509521718],[7.95314100768142,46.72714218729128],[7.952996942305829,46.72712484481944],[7.953023875862954,46.72720568438293],[7.953840579029078,46.727795716516646],[7.954208404791465,46.727955978579566],[7.954826844746648,46.72833100281186],[7.954984425486536,46.72839326014442]]]}},{"type":"Feature","properties":{"kind":"auto_breakzone","name":"Automatisch erkannte Gef\u00e4lle\u00e4nderung","depth_median_m":129.6,"slope_median_deg":35.8,"area_m2":2353},"geometry":{"type":"Polygon","coordinates":[[[7.9521030568624544,46.728046422744164],[7.952483960705926,46.728206631561505],[7.952483276070455,46.72813466945189],[7.952245755779791,46.72791984211894],[7.952258152915074,46.72784782118519],[7.952179065522783,46.727785207235506],[7.952047994662326,46.72775880948861],[7.95218009186097,46.727893150406565],[7.952088778177874,46.727920547848306],[7.951943599705087,46.72778626561084],[7.951614940587907,46.72761682473861],[7.951339889760568,46.72758207704299],[7.951234555713366,46.72751058459997],[7.95116735633639,46.727321977526366],[7.951035263060713,46.72718763542695],[7.950759106025321,46.72703594787303],[7.950523387700522,46.72701001751731],[7.950799799830584,46.72718869144034],[7.951009697803796,46.72725071964589],[7.951104254116948,46.727565143154735],[7.951183425299766,46.72763675311658],[7.951865794903101,46.727858580410576],[7.9521030568624544,46.728046422744164]]]}},{"type":"Feature","properties":{"kind":"auto_breakzone","name":"Automatisch erkannte Gef\u00e4lle\u00e4nderung","depth_median_m":82.6,"slope_median_deg":40.8,"area_m2":708},"geometry":{"type":"Polygon","coordinates":[[[7.951213088128765,46.72800544158242],[7.951238994991268,46.727978338382414],[7.951199323721075,46.727933538164145],[7.950883064981796,46.727692074363866],[7.950344340821361,46.72744261085915],[7.950792518649317,46.72780042815577],[7.951213088128765,46.72800544158242]]]}},{"type":"Feature","properties":{"kind":"auto_breakzone","name":"Automatisch erkannte Gef\u00e4lle\u00e4nderung","depth_median_m":3.6,"slope_median_deg":28.0,"area_m2":1099},"geometry":{"type":"Polygon","coordinates":[[[7.948583113859522,46.727954243360166],[7.948606474054775,46.727657282748986],[7.948552789662566,46.72751359207088],[7.94798681268398,46.72714729573342],[7.947119383115307,46.72671936941536],[7.946726101509821,46.72663116299531],[7.946307335284424,46.726615033656365],[7.946870502110333,46.72668449446867],[7.947093559464798,46.72675546695203],[7.9483953038179465,46.72746032111156],[7.948580226313599,46.727648404283364],[7.948583113859522,46.727954243360166]]]}},{"type":"Feature","properties":{"kind":"auto_breakzone","name":"Automatisch erkannte Gef\u00e4lle\u00e4nderung","depth_median_m":90.2,"slope_median_deg":43.5,"area_m2":894},"geometry":{"type":"Polygon","coordinates":[[[7.950855707857065,46.72756625797158],[7.950881614688173,46.7275391548515],[7.950828947975442,46.727503408430316],[7.95034246595843,46.72724471500493],[7.949252125457236,46.7267638293235],[7.949883768827323,46.72715681247],[7.950198571602746,46.727245359529874],[7.950855707857065,46.72756625797158]]]}},{"type":"Feature","properties":{"kind":"auto_breakzone","name":"Automatisch erkannte Gef\u00e4lle\u00e4nderung","depth_median_m":63.9,"slope_median_deg":43.1,"area_m2":602},"geometry":{"type":"Polygon","coordinates":[[[7.949872305244036,46.727327781082494],[7.949884790558091,46.727264755668834],[7.949555715644678,46.72705033251816],[7.949279903647123,46.72693462244781],[7.9491885901138994,46.72696201756977],[7.949267842907662,46.72704262413349],[7.949872305244036,46.727327781082494]]]}},{"type":"Feature","properties":{"kind":"auto_breakzone","name":"Automatisch erkannte Gef\u00e4lle\u00e4nderung","depth_median_m":158.1,"slope_median_deg":17.7,"area_m2":226},"geometry":{"type":"Polygon","coordinates":[[[7.952108356346685,46.72722779487066],[7.952224719479545,46.72708334133547],[7.95215803030969,46.7269487064277],[7.952053636977129,46.726976162653116],[7.952108356346685,46.72722779487066]]]}},{"type":"Feature","properties":{"kind":"auto_breakzone","name":"Automatisch erkannte Gef\u00e4lle\u00e4nderung","depth_median_m":148.7,"slope_median_deg":24.9,"area_m2":396},"geometry":{"type":"Polygon","coordinates":[[[7.951414705867216,46.72719492831473],[7.951636489765562,46.72713096292505],[7.951727375083268,46.727058589516524],[7.951687105970985,46.72695082260561],[7.9518287773482985,46.72671629929939],[7.951827751735768,46.72660835611155],[7.951749863023687,46.72667167557576],[7.951661028946906,46.726959935379504],[7.951414705867216,46.72719492831473]]]}},{"type":"Feature","properties":{"kind":"auto_breakzone","name":"Automatisch erkannte Gef\u00e4lle\u00e4nderung","depth_median_m":88.3,"slope_median_deg":44.7,"area_m2":834},"geometry":{"type":"Polygon","coordinates":[[[7.949421840651626,46.72672708793478],[7.950065714359745,46.72703005890795],[7.95002587442725,46.72696726774359],[7.949789135220269,46.72683339266836],[7.948751302241261,46.72637025854762],[7.948541580131914,46.726326216715705],[7.948699657425337,46.72644245435699],[7.949421840651626,46.72672708793478]]]}},{"type":"Feature","properties":{"kind":"auto_breakzone","name":"Automatisch erkannte Gef\u00e4lle\u00e4nderung","depth_median_m":177.6,"slope_median_deg":33.2,"area_m2":358},"geometry":{"type":"Polygon","coordinates":[[[7.95275985253461,46.7269549948567],[7.9527988393401365,46.72692783241963],[7.9526674278281435,46.72686545432354],[7.952653661771808,46.72679355107195],[7.952429912394971,46.72665062734499],[7.952298929716098,46.7266332251486],[7.952325861981053,46.72671406488124],[7.95275985253461,46.7269549948567]]]}},{"type":"Feature","properties":{"kind":"auto_breakzone","name":"Automatisch erkannte Gef\u00e4lle\u00e4nderung","depth_median_m":98.8,"slope_median_deg":42.2,"area_m2":4060},"geometry":{"type":"Polygon","coordinates":[[[7.9501565164266,46.72694869148422],[7.950247829445456,46.72692129558703],[7.950115483896324,46.726759966616186],[7.949537954645167,46.726555651331545],[7.948723186220895,46.72616348421053],[7.948198162338891,46.725976918989176],[7.94789679047606,46.72592428915155],[7.947738970785124,46.72583503619931],[7.947254720925358,46.725810206564155],[7.946874188110638,46.72568596131869],[7.946586069267742,46.72565126035126],[7.946297189906469,46.725535601218375],[7.946297866252398,46.72560756338483],[7.947164255150234,46.72592755276615],[7.947583355325755,46.72597966003674],[7.947806410702663,46.72605063113079],[7.948081112072801,46.72604940627976],[7.948698043468262,46.72627154425977],[7.9501565164266,46.72694869148422]]]}},{"type":"Feature","properties":{"kind":"auto_breakzone","name":"Automatisch erkannte Gef\u00e4lle\u00e4nderung","depth_median_m":168.7,"slope_median_deg":23.0,"area_m2":1593},"geometry":{"type":"Polygon","coordinates":[[[7.978071353289643,46.726775288014714],[7.978123318510057,46.726739059889816],[7.97803094189351,46.7266585351639],[7.977900310207967,46.726677143361655],[7.977886061472362,46.726560266929006],[7.9779507484060375,46.726487996136186],[7.977805329781154,46.72633575632107],[7.977319087763456,46.726113158962306],[7.977030588373728,46.72604255394581],[7.976728022942583,46.72587306210737],[7.976860266654784,46.726016369701384],[7.977609832118862,46.72640864440588],[7.977782490179337,46.72666870392341],[7.978071353289643,46.726775288014714]]]}},{"type":"Feature","properties":{"kind":"auto_breakzone","name":"Automatisch erkannte Gef\u00e4lle\u00e4nderung","depth_median_m":174.7,"slope_median_deg":33.9,"area_m2":930},"geometry":{"type":"Polygon","coordinates":[[[7.95241537662042,46.72649776667507],[7.9524411965843615,46.726461667932064],[7.952361854343783,46.726372068303505],[7.952085184693956,46.72616641235393],[7.951927442843913,46.72608616046765],[7.951809884571409,46.72610467998889],[7.951771410607258,46.72618581368731],[7.951863918133613,46.72628435021925],[7.951878537762879,46.72644620622876],[7.951930520262934,46.726409990042846],[7.951876913728613,46.72627529617653],[7.951915644042517,46.72622114824141],[7.952061416774293,46.72641839739711],[7.952218304470508,46.726408696439584],[7.95241537662042,46.72649776667507]]]}},{"type":"Feature","properties":{"kind":"auto_breakzone","name":"Automatisch erkannte Gef\u00e4lle\u00e4nderung","depth_median_m":145.5,"slope_median_deg":35.8,"area_m2":372},"geometry":{"type":"Polygon","coordinates":[[[7.9505836783024995,46.72647000839743],[7.950649083885536,46.72646971523306],[7.950608902632177,46.726370943201445],[7.949873296322199,46.72605039460931],[7.9505836783024995,46.72647000839743]]]}},{"type":"Feature","properties":{"kind":"auto_breakzone","name":"Automatisch erkannte Gef\u00e4lle\u00e4nderung","depth_median_m":167.8,"slope_median_deg":20.9,"area_m2":416},"geometry":{"type":"Polygon","coordinates":[[[7.9770721629644665,46.72627624536715],[7.977176631893143,46.72625776148066],[7.9766506125791965,46.72598137482122],[7.976638427669941,46.726071388913496],[7.976835987119119,46.72620539317481],[7.9770721629644665,46.72627624536715]]]}},{"type":"Feature","properties":{"kind":"auto_breakzone","name":"Automatisch erkannte Gef\u00e4lle\u00e4nderung","depth_median_m":51.4,"slope_median_deg":43.3,"area_m2":1898},"geometry":{"type":"Polygon","coordinates":[[[7.9479003525467515,46.7263020904538],[7.948004577030558,46.726256647491375],[7.947885999326821,46.726167219739374],[7.947204006286561,46.72598134966757],[7.946298373513023,46.7256615350093],[7.946299641669021,46.72579646406907],[7.946352219158437,46.725823217318215],[7.946811237702711,46.72594711515313],[7.94740233951495,46.72620535761541],[7.9479003525467515,46.7263020904538]]]}},{"type":"Feature","properties":{"kind":"auto_breakzone","name":"Automatisch erkannte Gef\u00e4lle\u00e4nderung","depth_median_m":95.1,"slope_median_deg":33.5,"area_m2":642},"geometry":{"type":"Polygon","coordinates":[[[7.946742194158234,46.72556060949299],[7.946781013739191,46.72551545856867],[7.946609354869045,46.72534530480532],[7.946373054044111,46.72525639896887],[7.946397862745752,46.72511235833615],[7.946305536307764,46.7250318079001],[7.9462958372200205,46.72539167688379],[7.94649238841376,46.7254267857405],[7.946742194158234,46.72556060949299]]]}},{"type":"Feature","properties":{"kind":"auto_breakzone","name":"Automatisch erkannte Gef\u00e4lle\u00e4nderung","depth_median_m":169.1,"slope_median_deg":17.9,"area_m2":312},"geometry":{"type":"Polygon","coordinates":[[[7.979704286888937,46.72262955428404],[7.979742716281347,46.722548411133126],[7.979623823805756,46.72243203061472],[7.9794268116435525,46.7223520026224],[7.979296190873417,46.72237061242824],[7.979283470948399,46.72240665534578],[7.979545703517439,46.7224683833472],[7.979704286888937,46.72262955428404]]]}},{"type":"Feature","properties":{"kind":"auto_breakzone","name":"Automatisch erkannte Gef\u00e4lle\u00e4nderung","depth_median_m":163.8,"slope_median_deg":22.3,"area_m2":1616},"geometry":{"type":"Polygon","coordinates":[[[7.979949113518111,46.72225957140541],[7.980224245814782,46.72230324535147],[7.980223343834904,46.722213292870265],[7.979383158549537,46.721911421234374],[7.9791453784727615,46.72167865930665],[7.97892301978559,46.72167971149278],[7.979029279128286,46.721841130892045],[7.979226919051663,46.721984126319995],[7.979949113518111,46.72225957140541]]]}}],"metadata":{"version":"0.8","scope":"Oberried prototype","steep_min_deg":13,"break_change_percentile":88,"note":"Terrain interpretation, not fishing recommendation"}}