{"type":"FeatureCollection","features":[{"type":"Feature","properties":{"id":1,"type":"R\u00fccken / Erhebung","depth_min":8.0,"depth_max":120.0,"length_m":1139,"area_m2":83838,"slope_median":28.9,"slope_p90":40.7,"terrain_score":99},"geometry":{"type":"Point","coordinates":[7.964121752448074,46.734431684377725]}},{"type":"Feature","properties":{"id":2,"type":"R\u00fccken / Erhebung","depth_min":8.0,"depth_max":119.9,"length_m":580,"area_m2":21420,"slope_median":33.2,"slope_p90":41.4,"terrain_score":97},"geometry":{"type":"Point","coordinates":[7.948804595657791,46.72736252053232]}},{"type":"Feature","properties":{"id":3,"type":"Rinne / Vertiefung","depth_min":51.5,"depth_max":120.0,"length_m":223,"area_m2":13029,"slope_median":29.3,"slope_p90":51.6,"terrain_score":95},"geometry":{"type":"Point","coordinates":[7.965473276173472,46.735034043582935]}},{"type":"Feature","properties":{"id":4,"type":"Rinne / Vertiefung","depth_min":74.4,"depth_max":120.0,"length_m":272,"area_m2":6862,"slope_median":33.6,"slope_p90":54.8,"terrain_score":95},"geometry":{"type":"Point","coordinates":[7.948631511404457,46.72620156988445]}},{"type":"Feature","properties":{"id":5,"type":"Kante / Drop-off","depth_min":8.0,"depth_max":120.0,"length_m":1143,"area_m2":188108,"slope_median":30.5,"slope_p90":40.2,"terrain_score":91},"geometry":{"type":"Point","coordinates":[7.966408708697044,46.735612380549036]}},{"type":"Feature","properties":{"id":6,"type":"Rinne / Vertiefung","depth_min":80.8,"depth_max":120.0,"length_m":287,"area_m2":8489,"slope_median":25.6,"slope_p90":46.5,"terrain_score":88},"geometry":{"type":"Point","coordinates":[7.953371628154924,46.7288449941183]}},{"type":"Feature","properties":{"id":7,"type":"Kante / Drop-off","depth_min":8.0,"depth_max":120.0,"length_m":1085,"area_m2":192070,"slope_median":31.0,"slope_p90":40.2,"terrain_score":85},"geometry":{"type":"Point","coordinates":[7.953160437746127,46.729474004449635]}},{"type":"Feature","properties":{"id":8,"type":"R\u00fccken / Erhebung","depth_min":8.0,"depth_max":48.8,"length_m":429,"area_m2":9619,"slope_median":26.2,"slope_p90":35.6,"terrain_score":81},"geometry":{"type":"Point","coordinates":[7.955023539922141,46.73143287992989]}},{"type":"Feature","properties":{"id":9,"type":"Rinne / Vertiefung","depth_min":60.5,"depth_max":120.0,"length_m":174,"area_m2":8020,"slope_median":25.0,"slope_p90":31.4,"terrain_score":70},"geometry":{"type":"Point","coordinates":[7.958295321846242,46.73119116777312]}},{"type":"Feature","properties":{"id":10,"type":"R\u00fccken / Erhebung","depth_min":69.2,"depth_max":93.6,"length_m":110,"area_m2":3039,"slope_median":35.2,"slope_p90":46.5,"terrain_score":67},"geometry":{"type":"Point","coordinates":[7.951016017093844,46.72791345507505]}},{"type":"Feature","properties":{"id":11,"type":"Terrasse / Plateau","depth_min":8.0,"depth_max":62.1,"length_m":496,"area_m2":75387,"slope_median":6.2,"slope_p90":7.5,"terrain_score":57},"geometry":{"type":"Point","coordinates":[7.9615389807446215,46.734707105159956]}},{"type":"Feature","properties":{"id":12,"type":"Terrasse / Plateau","depth_min":8.0,"depth_max":14.2,"length_m":117,"area_m2":6015,"slope_median":6.0,"slope_p90":7.3,"terrain_score":27},"geometry":{"type":"Point","coordinates":[7.953317836403474,46.73105045303998]}}]}