{"type":"FeatureCollection","features":[{"type":"Feature","properties":{"kind":"auto_slope","id":1,"name":"Automatischer Hang A1","depth_shallow_m":23.2,"depth_median_m":91.7,"depth_deep_m":159.6,"relief_m":136.4,"slope_median_deg":29.1,"slope_p90_deg":41.5,"area_m2":740048,"structure_id":"OBR-A001","structure_type":"Steilabbruch","catalog_name":"Oberried Steilabbruch 1"},"geometry":{"type":"Polygon","coordinates":[[[7.970623882796386,46.73965601854331],[7.976498369681134,46.73959252954547],[7.9762739665538875,46.739395681408745],[7.97603782380248,46.73933382289792],[7.975920423941568,46.739370357720006],[7.975695934379398,46.73916451320614],[7.975473145758668,46.73912957771925],[7.97530081654541,46.73890549600097],[7.974879534419212,46.73864660025538],[7.974852294383086,46.73853878024861],[7.974259141257229,46.738100775708595],[7.973861898230295,46.73762586778309],[7.973717619897049,46.73759056103575],[7.973150475708662,46.73713443763718],[7.972953686452343,46.737081384303295],[7.972650716047361,46.73687590088942],[7.972135122589521,46.73633857058835],[7.971885026209627,46.736186812150436],[7.971687975268254,46.73610677090351],[7.9714398338324495,46.73615290679548],[7.970849305713674,46.735975746417445],[7.970415693195513,46.7357888569915],[7.9698232257683905,46.73541379594958],[7.969351167312375,46.73530804215941],[7.968784172395826,46.73486089217783],[7.968468941595617,46.73473641552586],[7.968007858483119,46.73441470959697],[7.967300670575057,46.73434601935418],[7.96600044534152,46.73383927702922],[7.964896223070462,46.73330463020541],[7.963987387100806,46.732679117817256],[7.963093139729597,46.73220645736146],[7.962068956070501,46.731824341940076],[7.961283054229085,46.73172898825447],[7.9609941977768806,46.7316223616897],[7.960599292804521,46.73137228859584],[7.960427310944418,46.73117516998141],[7.960439350252202,46.731067167164106],[7.959992036439241,46.73080833572426],[7.959767209360967,46.73055748338972],[7.959280136594545,46.73024485664707],[7.958447224724575,46.72934008913566],[7.958184550238828,46.72923333636073],[7.957909746389365,46.72922559029489],[7.957437333457718,46.729074810824365],[7.9571492760654605,46.72904913182198],[7.957042809009849,46.72886070638283],[7.956871883913956,46.728771525469966],[7.95643012553632,46.72908837662094],[7.956167714857641,46.72900860497688],[7.954878139250349,46.72822282319452],[7.954719613653974,46.728061617830974],[7.954588111225741,46.727990246693885],[7.954260644808809,46.727946747125145],[7.953890501987906,46.72754361312574],[7.9537596024593356,46.72753520787232],[7.953233776461263,46.727267708494054],[7.953167170235357,46.72714206944325],[7.953049267397379,46.727124609183534],[7.952917084265961,46.72698127399689],[7.9526674278281435,46.72686545432354],[7.952414692098075,46.726425804551816],[7.951993104436925,46.726112852330665],[7.951835961156664,46.7260955671801],[7.9517200263591885,46.72628499666445],[7.951525176962389,46.72642980214671],[7.9514336092203655,46.72643021326992],[7.951235599887864,46.72624219340591],[7.95111812638613,46.72626970748008],[7.9508411207976115,46.726028067442435],[7.950381495727156,46.72584121896015],[7.949525702638304,46.72526033272677],[7.949131832629984,46.7251091677095],[7.948671286996041,46.72482336435173],[7.948052166584969,46.72436734915856],[7.947868614035069,46.72432318939917],[7.946959026565883,46.7235806021788],[7.94630221570153,46.723286666963446],[7.946333497597312,46.7266149173764],[7.947093559464798,46.72675546695203],[7.948500634001735,46.72753181617788],[7.948691333437259,46.728331577310776],[7.94941515821997,46.728787120928004],[7.949613510957329,46.72901112496221],[7.950269387074341,46.72919709775073],[7.950874220115956,46.72951823037888],[7.9517958471743295,46.73013479345313],[7.952231317089726,46.73052864480608],[7.952418231661492,46.73092361270137],[7.952433795545334,46.731184416428185],[7.95267235836036,46.73150718641827],[7.952723745834401,46.731408003067955],[7.9525906970446165,46.731174714963586],[7.952479192319589,46.730455564899714],[7.952884394238927,46.730417758890965],[7.953370402698217,46.73062246981901],[7.954002035460682,46.73100643472821],[7.954478236056113,46.73155301980108],[7.954361525719826,46.73166149453061],[7.953708264962419,46.73175439837205],[7.953708693909955,46.73179937466839],[7.954467301604471,46.7317779603466],[7.955043443269696,46.73182933116],[7.9565918263363855,46.73230808597441],[7.95680235505333,46.732433070277715],[7.957406053604459,46.73262823456092],[7.957682776715381,46.7328338774559],[7.957960885954744,46.733183443751095],[7.958360899493068,46.73396424591237],[7.9591896326158045,46.734428246235844],[7.959203842893376,46.73454512490086],[7.958982644189172,46.73467207172542],[7.958802859939342,46.73502372071955],[7.958766122908757,46.73528476174102],[7.958885865286043,46.73549111636222],[7.958857445672856,46.73525735897392],[7.958959078100836,46.73494204847798],[7.95916641449033,46.734734204047534],[7.959414126164368,46.73464311859492],[7.959715384420634,46.73467772743656],[7.960201196593181,46.734855423400276],[7.960728174772095,46.735230833434755],[7.9609901004275265,46.735256623027965],[7.960565177189597,46.73461087852143],[7.9601572561638925,46.73436985900301],[7.959960923975366,46.73436175949303],[7.959814579987129,46.73411054909253],[7.959196472572027,46.73378052841315],[7.959389679863912,46.73346480012528],[7.959230951935118,46.73328561061828],[7.9592396989532475,46.7328357883039],[7.95900325779233,46.732737913461975],[7.958923115459228,46.73256736116973],[7.958961063212273,46.7324322535863],[7.959168910148884,46.73227838062313],[7.958972585725972,46.732270279409875],[7.9588531101154,46.73209091057242],[7.958995717217576,46.73195532630002],[7.959244717112166,46.73199917001458],[7.959439305666296,46.731827365663094],[7.959937739545762,46.731960026884394],[7.959936697597307,46.73185208383089],[7.959646975345199,46.731655501308154],[7.959698870860835,46.73161028634611],[7.960014063128337,46.731734787282534],[7.960701129636507,46.7324333100706],[7.961425198052478,46.732897772494994],[7.961572417293057,46.73323893338139],[7.962271646640252,46.73383843893821],[7.962404569410296,46.734053725177276],[7.962943415445498,46.734303131519546],[7.96319706037168,46.73482371481804],[7.963447300805901,46.734993482828266],[7.963514028122867,46.73512811101476],[7.963999944388857,46.735314786034756],[7.964276706445315,46.73552041286756],[7.96464452832102,46.735671645882135],[7.96480275538719,46.735796856325464],[7.964962912019042,46.736119961972186],[7.965607336389266,46.73645882585378],[7.9660570083606075,46.736951511474345],[7.965978857881727,46.7369878548522],[7.965519525737705,46.736846043843194],[7.965388777300192,46.736855642439316],[7.966912109167233,46.73742432995594],[7.967583522091925,46.737844018803955],[7.968882975485528,46.73826079044364],[7.969146687287869,46.738466466118304],[7.9694912047357205,46.738905652666794],[7.970623882796386,46.73965601854331]],[[7.965624377260773,46.73418284736013],[7.965426816450045,46.73404882378929],[7.965452017049172,46.73394975539214],[7.9657024361173745,46.73413750896603],[7.965624377260773,46.73418284736013]],[[7.959475603322922,46.73152134805005],[7.959422840278994,46.73147661035869],[7.959487904874539,46.73144033110316],[7.95954066793696,46.73148506876458],[7.959475603322922,46.73152134805005]],[[7.9541538155022975,46.72908967681246],[7.953707148768162,46.72889378749645],[7.953495354810047,46.72863386849461],[7.952997567197117,46.72856414590729],[7.952681211091964,46.72831369184762],[7.952928818566683,46.72821362515555],[7.953229436802878,46.72818528431167],[7.953349742290661,46.72845461174454],[7.953901486308561,46.728695006751096],[7.9541389307552395,46.72890083535543],[7.95430950819843,46.7289540393175],[7.954284203578661,46.72904411004313],[7.9541538155022975,46.72908967681246]],[[7.9528609272490955,46.72795305698584],[7.952807830654013,46.727872335161926],[7.952885805504209,46.72781801024689],[7.952965150743396,46.727907609497],[7.9528609272490955,46.72795305698584]],[[7.952175815478893,46.72744338718559],[7.9520964722347,46.727353787381794],[7.95217282205378,46.727128552917875],[7.952144179390715,46.72686780785006],[7.952209243321489,46.7268315327298],[7.9526833341913745,46.727162239188935],[7.952435388810001,46.72722632430086],[7.952306286793934,46.72740681793459],[7.952175815478893,46.72744338718559]],[[7.9517020670395215,46.727148659687344],[7.951649314725671,46.72710391837833],[7.951766618857881,46.7270584132288],[7.951819371224557,46.72710315448373],[7.9517020670395215,46.727148659687344]],[[7.950083516390447,46.728910069437696],[7.949729714382026,46.72884868347113],[7.949596940159201,46.728642377605425],[7.948939628304696,46.72830348141362],[7.948911340587641,46.728078716633036],[7.949053027003432,46.727844196804774],[7.949250014131152,46.72792427723114],[7.949513770633201,46.72814798906044],[7.949594387215842,46.7283725196396],[7.950068475595581,46.72870323691633],[7.950161580679719,46.72886474165677],[7.950083516390447,46.728910069437696]]]}},{"type":"Feature","properties":{"kind":"auto_slope","id":2,"name":"Automatischer Hang A2","depth_shallow_m":41.0,"depth_median_m":45.1,"depth_deep_m":50.0,"relief_m":8.9,"slope_median_deg":17.1,"slope_p90_deg":19.5,"area_m2":3268,"structure_id":"OBR-A002","structure_type":"Hangstufe","catalog_name":"Oberried Hangstufe 2"},"geometry":{"type":"Polygon","coordinates":[[[7.960660189943035,46.73361192733696],[7.961065148789639,46.73354710651378],[7.9611425142981265,46.73342980922147],[7.960815270483306,46.733413314258904],[7.960484549958475,46.733037008247024],[7.960221940302925,46.732939255461105],[7.960052039212767,46.732958022393824],[7.959844192176338,46.73311189695528],[7.959871746733529,46.73325570162137],[7.9599506774190685,46.733300319691914],[7.960054471020815,46.73320988948377],[7.960357894213265,46.733469377956865],[7.960660189943035,46.73361192733696]]]}},{"type":"Feature","properties":{"kind":"auto_slope","id":3,"name":"Automatischer Hang A3","depth_shallow_m":168.1,"depth_median_m":173.8,"depth_deep_m":178.8,"relief_m":10.7,"slope_median_deg":24.7,"slope_p90_deg":31.8,"area_m2":10280,"structure_id":"OBR-A003","structure_type":"Hangstufe","catalog_name":"Oberried Hangstufe 3"},"geometry":{"type":"Polygon","coordinates":[[[7.9777729111047275,46.727019580252446],[7.978230574033756,46.72699942764451],[7.978347585819572,46.72692690941381],[7.97828020244315,46.72672932307159],[7.978082637484503,46.72659532132006],[7.977896717524529,46.7263173335264],[7.9773964969731574,46.726004845796126],[7.977224470823983,46.7258077524054],[7.976804447028214,46.72566580161734],[7.976542739583306,46.725658038818075],[7.97629599361774,46.72583911404506],[7.976258989373701,46.72606417996786],[7.976417215217659,46.7261893744252],[7.976560837655027,46.726161711069686],[7.976759383135971,46.72639466318032],[7.977298757327436,46.72669797337092],[7.9773260859969115,46.72681478817866],[7.9777729111047275,46.727019580252446]],[[7.977770307004426,46.726758718130014],[7.977625247245621,46.72664245907308],[7.977557866871905,46.726444872298025],[7.977268199142107,46.726257329682994],[7.976992780066225,46.72618666288047],[7.976676684905177,46.72597225633131],[7.976728560667719,46.725927033591645],[7.97763590448925,46.726399525697055],[7.977835263751926,46.726713433141576],[7.977770307004426,46.726758718130014]]]}},{"type":"Feature","properties":{"kind":"auto_slope","id":4,"name":"Automatischer Hang A4","depth_shallow_m":145.3,"depth_median_m":170.0,"depth_deep_m":178.5,"relief_m":33.2,"slope_median_deg":22.1,"slope_p90_deg":33.9,"area_m2":9677,"structure_id":"OBR-A004","structure_type":"Steilabbruch","catalog_name":"Oberried Steilabbruch 4"},"geometry":{"type":"Polygon","coordinates":[[[7.980165339008587,46.72295121332483],[7.980202956176672,46.72278911279291],[7.980005581200798,46.72267310481284],[7.979809288626238,46.722665039466975],[7.979650164220315,46.7224498971866],[7.979269220342628,46.72228977903269],[7.979528749861225,46.7220816496064],[7.980172376470757,46.72234846969932],[7.980165792712847,46.7216918165666],[7.979027839163876,46.72169720689958],[7.979187138914409,46.721930340564114],[7.97893942907058,46.72201247384397],[7.978714550520474,46.721761658637796],[7.978491562125411,46.72169974323372],[7.978308622880257,46.7217185992216],[7.978348761522431,46.721808366285394],[7.978571660280997,46.72186128671823],[7.978546849109462,46.72199633914202],[7.978706147663952,46.722229473471224],[7.978811417852316,46.722291945322546],[7.978889358429309,46.72223760259413],[7.978968288721683,46.722282207552624],[7.97890414806584,46.72240845044958],[7.978785527583199,46.72231905480266],[7.97879977714823,46.722435931175795],[7.979062639338524,46.72256062703104],[7.979271741440471,46.72254164599688],[7.979733511165525,46.72293526877303],[7.97996832414559,46.722871186272634],[7.980165339008587,46.72295121332483]]]}}],"metadata":{"version":"0.9","area":"Oberried","id_scheme":"OBR-A###"}}