{"type":"FeatureCollection","features":[{"type":"Feature","properties":{"kind":"plateau_segment","name":"#11W \u00b7 Uferterrasse","area_m2":22450,"depth_min":7.8,"depth_max":35.2},"geometry":{"type":"Polygon","coordinates":[[[7.960677968371945,46.734097611158205],[7.960414744814442,46.73393689206441],[7.95973408585308,46.73390401638548],[7.959510982279258,46.73383306868623],[7.959379025734449,46.73371672685416],[7.9593008754435495,46.73375306566841],[7.959353900818496,46.73382478916418],[7.959550751565922,46.733886861236684],[7.959591041579144,46.73399462528912],[7.959814319550941,46.73408356333535],[7.95997331228486,46.73428973777102],[7.960130482060743,46.73430701169135],[7.960551398621439,46.734538976283964],[7.960855788543223,46.73489741115675],[7.960922944261639,46.735077017113895],[7.961094505244215,46.735229158645545],[7.961095201464972,46.735301120647726],[7.960991405582297,46.73539155178234],[7.960860311912175,46.735365164187144],[7.960373884622813,46.735124504284634],[7.960149645851769,46.73493661958018],[7.959558647548339,46.73470542920483],[7.95928381560567,46.7346976864546],[7.959036883611474,46.734869728893926],[7.959129159222751,46.734941273682175],[7.959156886215131,46.735103068996],[7.9593425663570745,46.73536309656966],[7.960157724825542,46.73577317791365],[7.9605790876652796,46.7360501186181],[7.961025577616292,46.73621899511418],[7.96128774874098,46.736269635303124],[7.96126828211772,46.73425825404191],[7.960677968371945,46.734097611158205]]]}},{"type":"Feature","properties":{"kind":"plateau_segment","name":"#11M \u00b7 Mittelplateau","area_m2":36814,"depth_min":8.0,"depth_max":35.0},"geometry":{"type":"Polygon","coordinates":[[[7.963500944919313,46.73512817112649],[7.963434130217433,46.73498454768356],[7.963184064617166,46.73483277014255],[7.963129722659512,46.734626119696344],[7.962890821452258,46.73427638594611],[7.96241800134005,46.73408964619305],[7.96175286196591,46.73430858958623],[7.96142569971081,46.73430109162763],[7.96126828211772,46.73425825404191],[7.96128774874098,46.736269635303124],[7.961798983851001,46.73636838193718],[7.962923117286267,46.736255280659755],[7.96352523224131,46.73628080975957],[7.963514115553943,46.735137106263316],[7.963500944919313,46.73512817112649]]]}},{"type":"Feature","properties":{"kind":"plateau_segment","name":"#11O \u00b7 Ostterrasse","area_m2":11282,"depth_min":8.0,"depth_max":18.9},"geometry":{"type":"Polygon","coordinates":[[[7.965766182667111,46.73664700166798],[7.965594340645417,46.73646788145135],[7.96494991624864,46.73612901749661],[7.964789759667782,46.735805911831946],[7.964670957864354,46.73569851113618],[7.9643030481677854,46.735538282959645],[7.964013115151795,46.73532372111374],[7.963632651462087,46.735217522425714],[7.963514115553943,46.735137106263316],[7.96352523224131,46.73628080975957],[7.964454584704668,46.736320207129744],[7.965031310550966,46.73642549893316],[7.965714111790073,46.73667422887558],[7.965766182667111,46.73664700166798]]]}},{"type":"Feature","properties":{"kind":"upper_break","name":"Oberkante Abbruch \u00b7 ca. 25 m","depth_m":25,"length_m":975},"geometry":{"type":"LineString","coordinates":[[7.958154680174543,46.732771719655986],[7.958190458453507,46.73288104564377],[7.958268440115591,46.73289868224271],[7.958345519877254,46.73304589261167],[7.958462132151926,46.733095705275026],[7.958457883101211,46.733176685445535],[7.958654545033576,46.73336469899016],[7.958650766757465,46.7334996509128],[7.9588224051227385,46.73365709505413],[7.958889759002645,46.73385813551429],[7.959047906771638,46.73397706474621],[7.959293172325328,46.73403646369757],[7.959638868773584,46.73420554978834],[7.959824520608018,46.73446272292633],[7.959955348347828,46.73446184419618],[7.960139229050777,46.73453536539621],[7.960941935326313,46.73501140542896],[7.961465334457738,46.73501645159288],[7.961766987792352,46.7350914869317],[7.962643160469322,46.7350461000681],[7.963229757654421,46.73482247940527],[7.963518535329739,46.73491877627724],[7.963533774332286,46.73499758335625],[7.963664212966358,46.73509944370479],[7.964005047325368,46.735166877257846],[7.964122499873784,46.735135880188665],[7.964386888803334,46.73541455213989],[7.964662226013967,46.735473702121745],[7.964978145654422,46.73566932135124],[7.965203709008512,46.735990996420725],[7.965900509932425,46.736333981461485],[7.96636717960651,46.73675667256996],[7.967249516374242,46.73713041054854],[7.967310408817158,46.7373214382479]]}},{"type":"Feature","properties":{"kind":"lower_break","name":"Unterkante Abbruch \u00b7 ca. 50 m","depth_m":50,"length_m":1752},"geometry":{"type":"MultiLineString","coordinates":[[[7.958854131828851,46.73251039459485],[7.9590255057550525,46.732616370849264],[7.959154258999681,46.73279439343334],[7.959364381072447,46.73287638702228],[7.959631248922506,46.73287966979031]],[[7.959631248922506,46.73287966979031],[7.959652270642113,46.73288243608962],[7.9597045640052775,46.732878332827795],[7.959967690937577,46.73302979901587],[7.960071998655894,46.7329926719699],[7.960281584244646,46.7330188990031],[7.960531368226026,46.733143258232055],[7.960689717588306,46.73328288132294],[7.961067930446157,46.73315843251473],[7.961198887011884,46.73317119499592],[7.961471686311524,46.73296975630836],[7.961538897510746,46.732991706426745],[7.961535033134598,46.73310866757632],[7.961604675572933,46.73319246073337],[7.962064468196324,46.73338607099946],[7.962103624594948,46.73347488515068],[7.962315469761183,46.73363538746497],[7.962420328307111,46.73365509562005],[7.962657555894766,46.73383295463028],[7.962880596279114,46.73389696042008],[7.963279045677254,46.734126175389235],[7.96358843272533,46.734421610549745],[7.9636052808914535,46.73453847658822],[7.963960864128353,46.73465990679246],[7.9640400284934785,46.734727980777194],[7.964183513290458,46.73468320003254],[7.964275275546497,46.73470133198352],[7.964604476171485,46.73491781315439],[7.964776662710117,46.73513313967408],[7.965435052384597,46.73556368710298],[7.965540015916344,46.73571699517602],[7.966273370996169,46.7361723885606],[7.966371072212923,46.7362864292516],[7.9664729526333335,46.73629740569083],[7.9664656208765185,46.73636940477779],[7.967293193439527,46.73675239107785],[7.9675521472995525,46.736925632975854]],[[7.967491588467477,46.73706672610674],[7.959631248922506,46.73287966979031]],[[7.959631248922506,46.73287966979031],[7.958917701622739,46.73249951732281]]]}}]}