{"type":"FeatureCollection","features":[{"type":"Feature","properties":{"structure_id":"OBR-F001","structure_type":"Nase / Vorsprung","catalog_name":"Oberried Nase / Vorsprung 1","depth_m":10.0,"slope_deg":35.0,"local_relief_index_m":7.0,"target_role":"Fishing Target","status":"prototype-v0.11"},"geometry":{"type":"Point","coordinates":[7.970523845509698,46.73946307782861]}},{"type":"Feature","properties":{"structure_id":"OBR-F002","structure_type":"Nase / Vorsprung","catalog_name":"Oberried Nase / Vorsprung 2","depth_m":6.6,"slope_deg":29.4,"local_relief_index_m":8.1,"target_role":"Fishing Target","status":"prototype-v0.11"},"geometry":{"type":"Point","coordinates":[7.968862510426297,46.73817542674135]}},{"type":"Feature","properties":{"structure_id":"OBR-F003","structure_type":"Nase / Vorsprung","catalog_name":"Oberried Nase / Vorsprung 3","depth_m":119.4,"slope_deg":26.3,"local_relief_index_m":9.2,"target_role":"Fishing Target","status":"prototype-v0.11"},"geometry":{"type":"Point","coordinates":[7.970020943938116,46.73622698314633]}},{"type":"Feature","properties":{"structure_id":"OBR-F004","structure_type":"Nase / Vorsprung","catalog_name":"Oberried Nase / Vorsprung 4","depth_m":15.6,"slope_deg":22.9,"local_relief_index_m":7.9,"target_role":"Fishing Target","status":"prototype-v0.11"},"geometry":{"type":"Point","coordinates":[7.964835157014046,46.73576522230567]}},{"type":"Feature","properties":{"structure_id":"OBR-F005","structure_type":"Rinne / Einbuchtung","catalog_name":"Oberried Rinne / Einbuchtung 5","depth_m":96.4,"slope_deg":27.5,"local_relief_index_m":-10.1,"target_role":"Fishing Target","status":"prototype-v0.11"},"geometry":{"type":"Point","coordinates":[7.9660094964529495,46.73543596359704]}},{"type":"Feature","properties":{"structure_id":"OBR-F006","structure_type":"Nase / Vorsprung","catalog_name":"Oberried Nase / Vorsprung 6","depth_m":48.7,"slope_deg":36.3,"local_relief_index_m":8.5,"target_role":"Fishing Target","status":"prototype-v0.11"},"geometry":{"type":"Point","coordinates":[7.9643546983367175,46.73479590408042]}},{"type":"Feature","properties":{"structure_id":"OBR-F007","structure_type":"Nase / Vorsprung","catalog_name":"Oberried Nase / Vorsprung 7","depth_m":4.3,"slope_deg":24.2,"local_relief_index_m":7.2,"target_role":"Fishing Target","status":"prototype-v0.11"},"geometry":{"type":"Point","coordinates":[7.959169097656579,46.73433388550635]}},{"type":"Feature","properties":{"structure_id":"OBR-F008","structure_type":"Nase / Vorsprung","catalog_name":"Oberried Nase / Vorsprung 8","depth_m":30.5,"slope_deg":14.5,"local_relief_index_m":7.9,"target_role":"Fishing Target","status":"prototype-v0.11"},"geometry":{"type":"Point","coordinates":[7.962937004943689,46.73431665441762]}},{"type":"Feature","properties":{"structure_id":"OBR-F009","structure_type":"Nase / Vorsprung","catalog_name":"Oberried Nase / Vorsprung 9","depth_m":103.3,"slope_deg":31.3,"local_relief_index_m":7.1,"target_role":"Fishing Target","status":"prototype-v0.11"},"geometry":{"type":"Point","coordinates":[7.964817802381483,46.73398416323831]}},{"type":"Feature","properties":{"structure_id":"OBR-F010","structure_type":"Nase / Vorsprung","catalog_name":"Oberried Nase / Vorsprung 10","depth_m":118.2,"slope_deg":35.3,"local_relief_index_m":20.4,"target_role":"Fishing Target","status":"prototype-v0.11"},"geometry":{"type":"Point","coordinates":[7.9633922594868745,46.73269534673165]}},{"type":"Feature","properties":{"structure_id":"OBR-F011","structure_type":"Nase / Vorsprung","catalog_name":"Oberried Nase / Vorsprung 11","depth_m":85.1,"slope_deg":27.2,"local_relief_index_m":12.1,"target_role":"Fishing Target","status":"prototype-v0.11"},"geometry":{"type":"Point","coordinates":[7.962213254394205,46.73253883498718]}},{"type":"Feature","properties":{"structure_id":"OBR-F012","structure_type":"Nase / Vorsprung","catalog_name":"Oberried Nase / Vorsprung 12","depth_m":81.8,"slope_deg":26.8,"local_relief_index_m":20.0,"target_role":"Fishing Target","status":"prototype-v0.11"},"geometry":{"type":"Point","coordinates":[7.961266608003379,46.732057404789096]}},{"type":"Feature","properties":{"structure_id":"OBR-F013","structure_type":"Nase / Vorsprung","catalog_name":"Oberried Nase / Vorsprung 13","depth_m":65.0,"slope_deg":29.0,"local_relief_index_m":32.9,"target_role":"Fishing Target","status":"prototype-v0.11"},"geometry":{"type":"Point","coordinates":[7.960319978520642,46.731575966707396]}},{"type":"Feature","properties":{"structure_id":"OBR-F014","structure_type":"Nase / Vorsprung","catalog_name":"Oberried Nase / Vorsprung 14","depth_m":71.7,"slope_deg":25.1,"local_relief_index_m":29.8,"target_role":"Fishing Target","status":"prototype-v0.11"},"geometry":{"type":"Point","coordinates":[7.959136325321356,46.73093367936724]}},{"type":"Feature","properties":{"structure_id":"OBR-F015","structure_type":"Nase / Vorsprung","catalog_name":"Oberried Nase / Vorsprung 15","depth_m":119.6,"slope_deg":37.7,"local_relief_index_m":8.2,"target_role":"Fishing Target","status":"prototype-v0.11"},"geometry":{"type":"Point","coordinates":[7.958188176967677,46.73029030891189]}},{"type":"Feature","properties":{"structure_id":"OBR-F016","structure_type":"Nase / Vorsprung","catalog_name":"Oberried Nase / Vorsprung 16","depth_m":112.5,"slope_deg":25.7,"local_relief_index_m":15.6,"target_role":"Fishing Target","status":"prototype-v0.11"},"geometry":{"type":"Point","coordinates":[7.955587084722145,46.72916865805284]}},{"type":"Feature","properties":{"structure_id":"OBR-F017","structure_type":"Nase / Vorsprung","catalog_name":"Oberried Nase / Vorsprung 17","depth_m":7.9,"slope_deg":30.8,"local_relief_index_m":7.6,"target_role":"Fishing Target","status":"prototype-v0.11"},"geometry":{"type":"Point","coordinates":[7.948506113255095,46.72741934614095]}},{"type":"Feature","properties":{"structure_id":"OBR-F018","structure_type":"Nase / Vorsprung","catalog_name":"Oberried Nase / Vorsprung 18","depth_m":37.8,"slope_deg":37.1,"local_relief_index_m":8.1,"target_role":"Fishing Target","status":"prototype-v0.11"},"geometry":{"type":"Point","coordinates":[7.9470811338997684,46.72613032484394]}}],"metadata":{"version":"0.11","area":"Oberried","note":"Prototype fishing-scale targets derived from local terrain morphology; requires visual validation."}}